#dP2023  1 14 12  0  0.00000000      96 __u+U ITR00 EXT  IAC
## 2244 561600.00000000   900.00000000 59958 0.5000000000000
+  119   C06C07C08C09C10C11C12C13C14C16C19C20C21C22C23C24C25
+        C26C27C28C29C30C32C33C34C35C36C37C38C39C40C41C42C43
+        C44C45C46E01E02E03E04E05E07E08E09E10E11E12E13E14E15
+        E18E19E21E24E25E26E27E30E31E33E34E36G01G02G03G04G05
+        G06G07G08G09G10G11G12G13G14G15G16G17G18G19G20G21G22
+        G23G24G25G26G27G29G30G31G32J02J03J04R01R02R03R04R05
+        R07R08R09R11R12R13R14R15R16R17R18R19R20R21R22R24R25
++         0  0  0  0  0  0  0  0  0  0  0  0  0  0  0  0  0
++         0  0  0  0  0  0  0  0  0  0  0  0  0  0  0  0  0
++         0  0  0  0  0  0  0  0  0  0  0  0  0  0  0  0  0
++         0  0  0  0  0  0  0  0  0  0  0  0  0  0  0  0  0
++         0  0  0  0  0  0  0  0  0  0  0  0  0  0  0  0  0
++         0  0  0  0  0  0  0  0  0  0  0  0  0  0  0  0  0
++         0  0  0  0  0  0  0  0  0  0  0  0  0  0  0  0  0
%c M  cc GPS ccc cccc cccc cccc cccc ccccc ccccc ccccc ccccc
%c cc cc ccc ccc cccc cccc cccc cccc ccccc ccccc ccccc ccccc
%f  0.0000000  0.000000000  0.00000000000  0.000000000000000
%f  0.0000000  0.000000000  0.00000000000  0.000000000000000
%i    0    0    0    0      0      0      0      0         0
%i    0    0    0    0      0      0      0      0         0
/* IAC                                ULTRA-RAPID PREDICTION
/* S/V CLOCKS ARE ALIGNED TO GNSS TIME                      
/* G:C1WC2W R:C1PC2P E:C1XC5X C:C2IC6I J:C1CC2S             
/* PCV:IGS20_2239 OL/AL:FES2004  NONE     YN ORB:CoN CLK:CoN
*  2023 01 15  7  0  0.00000000
PC06 -17954.854752  34448.586796  16049.565869   -185.325198
PC07  -2432.795926  37405.610505  19492.849366     13.597606
PC08  -5859.033290  19893.578381 -36706.289394    527.646688
PC09 -11247.159467  33152.637994  23490.046830    268.284751
PC10   2505.607299  39553.222302  15374.426708     31.927391
PC11 -20831.979131  11478.536180  14684.032560   -177.065796
PC12 -14346.713687  -6314.568522  23131.579199    398.425632
PC13   -547.906765  22244.641563 -35629.355010    183.690968
PC14 -15831.586456   2971.984522 -22765.310752    370.127870
PC16 -19406.275804  34372.984477  14623.338133     81.587831
PC19  10695.323336 -13039.866839  22255.123565   -897.014122
PC20  18070.989762   5850.212948  20464.014173    766.569200
PC21 -15043.973970 -22672.225329  -6143.974557   -916.789536
PC22  -3188.650207 -25327.381808  11250.747818   -684.948784
PC23  -2920.877120  16096.593308  22603.320600   -871.627775
PC24 -27574.296536  -3990.516946  -1885.234681   -539.180539
PC25 -20864.118878   9847.095399  15703.626194     55.753014
PC26 -18628.470725 -13025.656205 -16231.958262    -64.538938
PC27   8550.625324  14517.002461 -22259.850196     81.804336
PC28  -6633.765867  24002.117026 -12589.140194     59.082414
PC29  18349.246844 -20224.796659  -5761.989458     67.644140
PC30  19096.674529  -3384.929590 -20077.598189      1.276648
PC32  15213.820783  22592.945191   6097.342645   -649.859626
PC33 -10679.062514  13038.453434 -22239.211292   -880.791461
PC34 -19463.673302   4568.663184  19450.704310     84.009155
PC35   6871.510861 -24538.359243  11418.580499    426.418311
PC36  21564.561816  -8986.226034 -15239.129039   -693.712175
PC37  17011.515873  13968.095217  17141.243525   -847.396427
PC38 -15389.127863  19562.437663 -34008.702842     52.051217
PC39 -22455.681449  34692.177138   7747.543320     -1.423357
PC40  -6377.243088  34575.714231  23418.286964    -12.578751
PC41   2860.952679  25151.790231 -11691.585302   -495.648516
PC42 -18278.350800  -7143.621971 -19790.297257   -894.943221
PC43 -18696.631382  19657.844004   6477.589210      2.153647
PC44  -8985.704248 -14483.817586  22092.791376    177.756957
PC45   2408.665160 -16040.445597 -22715.220544    -47.740330
PC46  27745.203503   2754.058171     93.231540    -26.542299
PE01  16820.040929  21788.410897  10864.127741   -594.886819
PE02 -17123.842803 -21741.307021 -10544.521456     14.798425
PE03  -7544.980702 -24668.125953 -14517.502639   -640.079402
PE04  16202.834875   6451.911407  23918.609602    -36.513440
PE05   5770.608383 -28802.294521   3664.228888   -105.036888
PE07 -15534.347622  15995.748903 -19468.036606    -15.281843
PE08 -16054.230646  -6516.186853 -24001.868835    -19.705292
PE09  15443.025753 -15833.825845  19665.990018   -800.611640
PE10  27730.587076  -6996.822906  -7625.512044   -505.190224
PE11  26113.117153 -13635.296769   2972.498762    466.331104
PE12  24953.410800    271.454521 -15929.059903   -384.732384
PE13 -26416.267567  13184.533304  -2063.872724    429.913220
PE14  -6367.846716  30069.852478   -985.077336    113.852040
PE15 -24747.800284   -451.520581  16240.283889    694.056034
PE18  12150.421219 -21528.977907  -7673.237611   -507.517152
PE19   5708.131339  26250.988573  12422.896013  -3483.269041
PE21   -265.864555  19069.596633  22629.281390   -506.343339
PE24  19221.237158  -4571.634888 -22048.585925  -1058.856060
PE25    571.911861 -18939.939505 -22743.313629   -597.210311
PE26 -11736.209595  19028.533604 -19389.481575  -1850.969372
PE27 -18597.866230   5316.753319  22409.485849   -488.071362
PE30 -25732.257445 -12040.888931   8339.864064  -1161.558843
PE31  25777.721106  11412.901210  -8999.587403   -513.359611
PE33   8497.521513  13706.448399 -24811.414642   -454.186275
PE34  -8698.831797 -13612.831731  24804.716649    -24.913219
PE36  12586.025182 -18944.775523  18957.582144   -490.658222
PG01   -642.977753  15426.626577 -21872.322910    224.252184
PG02  -3270.922990 -15283.795379  22127.540894   -627.213003
PG03   8350.094750  20364.472773 -15068.516420   -372.046328
PG04    435.725796  25199.298616   8210.182035    -48.402782
PG05   6021.308857 -14161.786070  21465.695750   -112.046347
PG06  25503.624667  -5149.191054  -5494.706600    558.684532
PG07  14952.038732   9950.945633  20141.384004    258.523494
PG08  -6385.699655  25311.224651   3542.495478   -103.658187
PG09   9098.262097  18390.722169  16762.365727   -236.188630
PG10 -22488.839940  -9455.124572 -10709.149471    -20.482500
PG11  22411.155596 -12155.084799   7394.766137    -79.138803
PG12  -5535.374557 -20752.644933 -15969.376414   -328.283157
PG13  13197.181521 -21116.521629   8784.443483    459.624969
PG14  22261.421847  11669.769546  -8767.513621    -49.041093
PG15   3082.065314 -26039.030222   2703.897138      4.757130
PG16 -10576.271906  10567.111810  21657.053065   -523.793247
PG17  13797.321935   5212.198875 -21648.641298    693.441454
PG18 -17319.809026  -7577.257939  18718.711486    -99.706107
PG19  16160.026965  -6586.351940 -20170.657379    264.316539
PG20  16405.382363  -6770.001701  19724.754875    456.968630
PG21  -9124.362312  17268.281711 -17017.789337    153.453243
PG22 -15782.783982  10888.389538 -17874.195322    406.225132
PG23 -20884.643162 -16537.042022   -100.331363      2.530860
PG24   4042.663100 -17773.444058 -19529.587036    -30.628800
PG25 -14760.128143 -20479.725165  -9008.620421    411.433347
PG26 -20010.726660   1224.933032  17475.955801    240.314530
PG27 -12546.006795  18902.376136  13233.831076    126.688141
PG29  -5323.501478 -20886.385433  15421.978551   -580.480300
PG30  23752.159662   1241.822927  12173.867245   -533.218823
PG31 -25911.246403   5793.778468  -3875.301143   -206.363002
PG32 -15103.055634  -1620.893376 -21623.584175   -364.501359
PJ02 -27167.133327  20809.024473  29665.839614     -0.577893
PJ03 -34121.888601  24827.920910   2519.691534     -0.066070
PJ04 -19567.997673  26474.637377 -21206.986809    118.835875
PR01  12253.618095   5133.027045  21777.422845     21.289424
PR02   6190.519646 -14471.310534  20138.456970    -23.310991
PR03  -3040.209318 -24528.789300   6479.855197     70.891600
PR04 -10182.073150 -20882.609281 -10524.299559    172.353784
PR05 -11872.429352  -5918.103301 -21782.990253    106.220451
PR07   3466.095103  24608.770734  -5587.933674     48.043109
PR08  10432.578699  20639.237442  10781.807701    -69.010533
PR09 -15372.923415   6001.467066  19435.892749     98.657945
PR11  18365.328415  11506.986672  13467.379110      6.215833
PR12  24621.308615   4304.634187  -5017.471964     24.344548
PR13  16832.002788  -4780.974449 -18578.131170    -30.969510
PR14  -2481.616061 -11937.171743 -22398.892586     24.241677
PR15 -19018.320998 -11519.044684 -12490.886262     91.707313
PR16 -24686.370566  -4286.424708   4711.321750      9.994021
PR17   8465.928500 -18123.297191  15820.288162    595.934218
PR18  -5541.033909  -9102.182242  23198.982220     61.877629
PR19 -16362.697568   3108.078984  19326.031751   -218.269330
PR20 -19445.497170  16404.257950   1517.028096    -85.876060
PR21  -7335.197534  17537.698873 -17015.144709   -365.552465
PR22   6222.522400   8960.062105 -23026.523859     66.699903
PR24  18756.853245 -17259.764323   -785.832456    139.758417
PR25  -9526.810066  17960.300498 -15408.505325     51.663948
EOF
